KUIPER-00044            
1 64505U 25134F   25224.25002315 -.00029408  00000+0 -20068-2 0  9990
2 64505  51.8804  94.4798 0012186 296.4661 122.6871 15.05498500  8362
KUIPER-00046            
1 64506U 25134G   25224.11467949 -.00272915  00000+0 -14799-1 0  9990
2 64506  51.8747  93.7382 0009458 302.4664  57.5398 15.15347422  8388
KUIPER-00047            
1 64507U 25134H   25223.95915373  .00015268  00000+0  45758-3 0  9996
2 64507  51.8631  92.7018 0009842 304.3261  55.6792 15.34647714  8382
KUIPER-00048            
1 64508U 25134J   25224.02515626  .00029326  00000+0  81186-3 0  9998
2 64508  51.8771  91.7214 0003324 283.8495  76.2121 15.36742363  8400
KUIPER-00049            
1 64509U 25134K   25223.85893413  .00031319  00000+0  88952-3 0  9995
2 64509  51.8703  92.8306 0006996 284.3144  75.7065 15.35893269  8812
KUIPER-00050            
1 64510U 25134L   25223.93214453  .00048998  00000+0  14021-2 0  9993
2 64510  51.8717  92.5733 0006319 276.4820  83.5446 15.35451566  8384
KUIPER-00051            
1 64511U 25134M   25224.04762391  .00044285  00000+0  12648-2 0  9994
2 64511  51.8726  91.8548 0005109 274.3211  85.7191 15.35563780  8785
KUIPER-00052            
1 64512U 25134N   25223.91668981 -.00041976  00000+0 -62600-3 0  9990
2 64512  51.8758  90.6237 0004701 316.2129 236.2795 15.54302896  5177
