<?xml version="1.0" encoding="UTF-8"?>
<ndm xmlns:xsi="http://www.w3.org/2001/XMLSchema-instance" xsi:noNamespaceSchemaLocation="https://sanaregistry.org/r/ndmxml_unqualified/ndmxml-2.0.0-master-2.0.xsd">
<omm id="CCSDS_OMM_VERS" version="2.0">
<header><CREATION_DATE/><ORIGINATOR/></header><body><segment><metadata><OBJECT_NAME>KUIPER-00044</OBJECT_NAME><OBJECT_ID>2025-134F</OBJECT_ID><CENTER_NAME>EARTH</CENTER_NAME><REF_FRAME>TEME</REF_FRAME><TIME_SYSTEM>UTC</TIME_SYSTEM><MEAN_ELEMENT_THEORY>SGP4</MEAN_ELEMENT_THEORY></metadata><data><meanElements><EPOCH>2025-08-12T06:00:02.000160</EPOCH><MEAN_MOTION>15.05498500</MEAN_MOTION><ECCENTRICITY>.0012186</ECCENTRICITY><INCLINATION>51.8804</INCLINATION><RA_OF_ASC_NODE>94.4798</RA_OF_ASC_NODE><ARG_OF_PERICENTER>296.4661</ARG_OF_PERICENTER><MEAN_ANOMALY>122.6871</MEAN_ANOMALY></meanElements><tleParameters><EPHEMERIS_TYPE>0</EPHEMERIS_TYPE><CLASSIFICATION_TYPE>U</CLASSIFICATION_TYPE><NORAD_CAT_ID>64505</NORAD_CAT_ID><ELEMENT_SET_NO>999</ELEMENT_SET_NO><REV_AT_EPOCH>836</REV_AT_EPOCH><BSTAR>-.20068E-2</BSTAR><MEAN_MOTION_DOT>-.29408E-3</MEAN_MOTION_DOT><MEAN_MOTION_DDOT>0</MEAN_MOTION_DDOT></tleParameters></data></segment></body></omm>
<omm id="CCSDS_OMM_VERS" version="2.0">
<header><CREATION_DATE/><ORIGINATOR/></header><body><segment><metadata><OBJECT_NAME>KUIPER-00046</OBJECT_NAME><OBJECT_ID>2025-134G</OBJECT_ID><CENTER_NAME>EARTH</CENTER_NAME><REF_FRAME>TEME</REF_FRAME><TIME_SYSTEM>UTC</TIME_SYSTEM><MEAN_ELEMENT_THEORY>SGP4</MEAN_ELEMENT_THEORY></metadata><data><meanElements><EPOCH>2025-08-12T02:45:08.307936</EPOCH><MEAN_MOTION>15.15347422</MEAN_MOTION><ECCENTRICITY>.0009458</ECCENTRICITY><INCLINATION>51.8747</INCLINATION><RA_OF_ASC_NODE>93.7382</RA_OF_ASC_NODE><ARG_OF_PERICENTER>302.4664</ARG_OF_PERICENTER><MEAN_ANOMALY>57.5398</MEAN_ANOMALY></meanElements><tleParameters><EPHEMERIS_TYPE>0</EPHEMERIS_TYPE><CLASSIFICATION_TYPE>U</CLASSIFICATION_TYPE><NORAD_CAT_ID>64506</NORAD_CAT_ID><ELEMENT_SET_NO>999</ELEMENT_SET_NO><REV_AT_EPOCH>838</REV_AT_EPOCH><BSTAR>-.14799E-1</BSTAR><MEAN_MOTION_DOT>-.272915E-2</MEAN_MOTION_DOT><MEAN_MOTION_DDOT>0</MEAN_MOTION_DDOT></tleParameters></data></segment></body></omm>
<omm id="CCSDS_OMM_VERS" version="2.0">
<header><CREATION_DATE/><ORIGINATOR/></header><body><segment><metadata><OBJECT_NAME>KUIPER-00047</OBJECT_NAME><OBJECT_ID>2025-134H</OBJECT_ID><CENTER_NAME>EARTH</CENTER_NAME><REF_FRAME>TEME</REF_FRAME><TIME_SYSTEM>UTC</TIME_SYSTEM><MEAN_ELEMENT_THEORY>SGP4</MEAN_ELEMENT_THEORY></metadata><data><meanElements><EPOCH>2025-08-11T23:01:10.882272</EPOCH><MEAN_MOTION>15.34647714</MEAN_MOTION><ECCENTRICITY>.0009842</ECCENTRICITY><INCLINATION>51.8631</INCLINATION><RA_OF_ASC_NODE>92.7018</RA_OF_ASC_NODE><ARG_OF_PERICENTER>304.3261</ARG_OF_PERICENTER><MEAN_ANOMALY>55.6792</MEAN_ANOMALY></meanElements><tleParameters><EPHEMERIS_TYPE>0</EPHEMERIS_TYPE><CLASSIFICATION_TYPE>U</CLASSIFICATION_TYPE><NORAD_CAT_ID>64507</NORAD_CAT_ID><ELEMENT_SET_NO>999</ELEMENT_SET_NO><REV_AT_EPOCH>838</REV_AT_EPOCH><BSTAR>.45758E-3</BSTAR><MEAN_MOTION_DOT>.15268E-3</MEAN_MOTION_DOT><MEAN_MOTION_DDOT>0</MEAN_MOTION_DDOT></tleParameters></data></segment></body></omm>
<omm id="CCSDS_OMM_VERS" version="2.0">
<header><CREATION_DATE/><ORIGINATOR/></header><body><segment><metadata><OBJECT_NAME>KUIPER-00048</OBJECT_NAME><OBJECT_ID>2025-134J</OBJECT_ID><CENTER_NAME>EARTH</CENTER_NAME><REF_FRAME>TEME</REF_FRAME><TIME_SYSTEM>UTC</TIME_SYSTEM><MEAN_ELEMENT_THEORY>SGP4</MEAN_ELEMENT_THEORY></metadata><data><meanElements><EPOCH>2025-08-12T00:36:13.500864</EPOCH><MEAN_MOTION>15.36742363</MEAN_MOTION><ECCENTRICITY>.0003324</ECCENTRICITY><INCLINATION>51.8771</INCLINATION><RA_OF_ASC_NODE>91.7214</RA_OF_ASC_NODE><ARG_OF_PERICENTER>283.8495</ARG_OF_PERICENTER><MEAN_ANOMALY>76.2121</MEAN_ANOMALY></meanElements><tleParameters><EPHEMERIS_TYPE>0</EPHEMERIS_TYPE><CLASSIFICATION_TYPE>U</CLASSIFICATION_TYPE><NORAD_CAT_ID>64508</NORAD_CAT_ID><ELEMENT_SET_NO>999</ELEMENT_SET_NO><REV_AT_EPOCH>840</REV_AT_EPOCH><BSTAR>.81186E-3</BSTAR><MEAN_MOTION_DOT>.29326E-3</MEAN_MOTION_DOT><MEAN_MOTION_DDOT>0</MEAN_MOTION_DDOT></tleParameters></data></segment></body></omm>
<omm id="CCSDS_OMM_VERS" version="2.0">
<header><CREATION_DATE/><ORIGINATOR/></header><body><segment><metadata><OBJECT_NAME>KUIPER-00049</OBJECT_NAME><OBJECT_ID>2025-134K</OBJECT_ID><CENTER_NAME>EARTH</CENTER_NAME><REF_FRAME>TEME</REF_FRAME><TIME_SYSTEM>UTC</TIME_SYSTEM><MEAN_ELEMENT_THEORY>SGP4</MEAN_ELEMENT_THEORY></metadata><data><meanElements><EPOCH>2025-08-11T20:36:51.908832</EPOCH><MEAN_MOTION>15.35893269</MEAN_MOTION><ECCENTRICITY>.0006996</ECCENTRICITY><INCLINATION>51.8703</INCLINATION><RA_OF_ASC_NODE>92.8306</RA_OF_ASC_NODE><ARG_OF_PERICENTER>284.3144</ARG_OF_PERICENTER><MEAN_ANOMALY>75.7065</MEAN_ANOMALY></meanElements><tleParameters><EPHEMERIS_TYPE>0</EPHEMERIS_TYPE><CLASSIFICATION_TYPE>U</CLASSIFICATION_TYPE><NORAD_CAT_ID>64509</NORAD_CAT_ID><ELEMENT_SET_NO>999</ELEMENT_SET_NO><REV_AT_EPOCH>881</REV_AT_EPOCH><BSTAR>.88952E-3</BSTAR><MEAN_MOTION_DOT>.31319E-3</MEAN_MOTION_DOT><MEAN_MOTION_DDOT>0</MEAN_MOTION_DDOT></tleParameters></data></segment></body></omm>
<omm id="CCSDS_OMM_VERS" version="2.0">
<header><CREATION_DATE/><ORIGINATOR/></header><body><segment><metadata><OBJECT_NAME>KUIPER-00050</OBJECT_NAME><OBJECT_ID>2025-134L</OBJECT_ID><CENTER_NAME>EARTH</CENTER_NAME><REF_FRAME>TEME</REF_FRAME><TIME_SYSTEM>UTC</TIME_SYSTEM><MEAN_ELEMENT_THEORY>SGP4</MEAN_ELEMENT_THEORY></metadata><data><meanElements><EPOCH>2025-08-11T22:22:17.287392</EPOCH><MEAN_MOTION>15.35451566</MEAN_MOTION><ECCENTRICITY>.0006319</ECCENTRICITY><INCLINATION>51.8717</INCLINATION><RA_OF_ASC_NODE>92.5733</RA_OF_ASC_NODE><ARG_OF_PERICENTER>276.4820</ARG_OF_PERICENTER><MEAN_ANOMALY>83.5446</MEAN_ANOMALY></meanElements><tleParameters><EPHEMERIS_TYPE>0</EPHEMERIS_TYPE><CLASSIFICATION_TYPE>U</CLASSIFICATION_TYPE><NORAD_CAT_ID>64510</NORAD_CAT_ID><ELEMENT_SET_NO>999</ELEMENT_SET_NO><REV_AT_EPOCH>838</REV_AT_EPOCH><BSTAR>.14021E-2</BSTAR><MEAN_MOTION_DOT>.48998E-3</MEAN_MOTION_DOT><MEAN_MOTION_DDOT>0</MEAN_MOTION_DDOT></tleParameters></data></segment></body></omm>
<omm id="CCSDS_OMM_VERS" version="2.0">
<header><CREATION_DATE/><ORIGINATOR/></header><body><segment><metadata><OBJECT_NAME>KUIPER-00051</OBJECT_NAME><OBJECT_ID>2025-134M</OBJECT_ID><CENTER_NAME>EARTH</CENTER_NAME><REF_FRAME>TEME</REF_FRAME><TIME_SYSTEM>UTC</TIME_SYSTEM><MEAN_ELEMENT_THEORY>SGP4</MEAN_ELEMENT_THEORY></metadata><data><meanElements><EPOCH>2025-08-12T01:08:34.705824</EPOCH><MEAN_MOTION>15.35563780</MEAN_MOTION><ECCENTRICITY>.0005109</ECCENTRICITY><INCLINATION>51.8726</INCLINATION><RA_OF_ASC_NODE>91.8548</RA_OF_ASC_NODE><ARG_OF_PERICENTER>274.3211</ARG_OF_PERICENTER><MEAN_ANOMALY>85.7191</MEAN_ANOMALY></meanElements><tleParameters><EPHEMERIS_TYPE>0</EPHEMERIS_TYPE><CLASSIFICATION_TYPE>U</CLASSIFICATION_TYPE><NORAD_CAT_ID>64511</NORAD_CAT_ID><ELEMENT_SET_NO>999</ELEMENT_SET_NO><REV_AT_EPOCH>878</REV_AT_EPOCH><BSTAR>.12648E-2</BSTAR><MEAN_MOTION_DOT>.44285E-3</MEAN_MOTION_DOT><MEAN_MOTION_DDOT>0</MEAN_MOTION_DDOT></tleParameters></data></segment></body></omm>
<omm id="CCSDS_OMM_VERS" version="2.0">
<header><CREATION_DATE/><ORIGINATOR/></header><body><segment><metadata><OBJECT_NAME>KUIPER-00052</OBJECT_NAME><OBJECT_ID>2025-134N</OBJECT_ID><CENTER_NAME>EARTH</CENTER_NAME><REF_FRAME>TEME</REF_FRAME><TIME_SYSTEM>UTC</TIME_SYSTEM><MEAN_ELEMENT_THEORY>SGP4</MEAN_ELEMENT_THEORY></metadata><data><meanElements><EPOCH>2025-08-11T22:00:01.999584</EPOCH><MEAN_MOTION>15.54302896</MEAN_MOTION><ECCENTRICITY>.0004701</ECCENTRICITY><INCLINATION>51.8758</INCLINATION><RA_OF_ASC_NODE>90.6237</RA_OF_ASC_NODE><ARG_OF_PERICENTER>316.2129</ARG_OF_PERICENTER><MEAN_ANOMALY>236.2795</MEAN_ANOMALY></meanElements><tleParameters><EPHEMERIS_TYPE>0</EPHEMERIS_TYPE><CLASSIFICATION_TYPE>U</CLASSIFICATION_TYPE><NORAD_CAT_ID>64512</NORAD_CAT_ID><ELEMENT_SET_NO>999</ELEMENT_SET_NO><REV_AT_EPOCH>517</REV_AT_EPOCH><BSTAR>-.626E-3</BSTAR><MEAN_MOTION_DOT>-.41976E-3</MEAN_MOTION_DOT><MEAN_MOTION_DDOT>0</MEAN_MOTION_DDOT></tleParameters></data></segment></body></omm>

</ndm>
